STARLINK-35175          
1 65929U 25225V   26068.52822907  .00028395  00000+0  96737-3 0  9995
2 65929  53.1600 166.4090 0000980  69.0864 291.0242 15.30192886 24384
KUIPER-00222            
1 67782U 26030U   26068.67636257  .00055223  00000+0  17317-2 0  9992
2 67782  51.8817 219.7147 0012800  40.1845 320.0084 15.32445377  5087
